#cP2019  6 29  0  0  0.00000000      96 ORBIT IGS14 HLM  IGS
## 2059 518400.00000000   900.00000000 58663 0.0000000000000
+   32   G01G02G03G04G05G06G07G08G09G10G11G12G13G14G15G16G17
+        G18G19G20G21G22G23G24G25G26G27G28G29G30G31G32  0  0
+          0  0  0  0  0  0  0  0  0  0  0  0  0  0  0  0  0
+          0  0  0  0  0  0  0  0  0  0  0  0  0  0  0  0  0
+          0  0  0  0  0  0  0  0  0  0  0  0  0  0  0  0  0
++         2  2  2  0  2  2  2  2  2  2  2  2  2  2  2  2  2
++         2  2  2  2  2  2  2  2  2  2  2  2  2  2  2  0  0
++         0  0  0  0  0  0  0  0  0  0  0  0  0  0  0  0  0
++         0  0  0  0  0  0  0  0  0  0  0  0  0  0  0  0  0
++         0  0  0  0  0  0  0  0  0  0  0  0  0  0  0  0  0
%c G  cc GPS ccc cccc cccc cccc cccc ccccc ccccc ccccc ccccc
%c cc cc ccc ccc cccc cccc cccc cccc ccccc ccccc ccccc ccccc
%f  1.2500000  1.025000000  0.00000000000  0.000000000000000
%f  0.0000000  0.000000000  0.00000000000  0.000000000000000
%i    0    0    0    0      0      0      0      0         0
%i    0    0    0    0      0      0      0      0         0
/* FINAL ORBIT COMBINATION FROM WEIGHTED AVERAGE OF:        
/* cod emr esa gfz grg jpl mit ngs sio                      
/* REFERENCED TO IGS TIME (IGST) AND TO WEIGHTED MEAN POLE: 
/* PCV:IGS14_2056 OL/AL:FES2004  NONE     Y  ORB:CMB CLK:CMB
*  2019  6 29 23 15  0.00000000
PG01   2167.494029  14872.467723 -22074.296655    -54.073697  7  6  7 105       
PG02  18642.988165 -15214.903974  11682.643852   -248.919786  5  4  5 100       
PG03  10232.938896  21561.715138 -11794.690468    183.588518  8  6  3  81       
PG04  13429.872587   7870.381797  21535.566632 999999.999999
PG05   8665.582494 -12861.719252  21425.670981      0.333929  4  5  6  71       
PG06  25805.653091  -6174.588762  -1497.676182    163.808946  8  4  6  91       
PG07  17373.359256   8940.804103  18471.444637    -54.459170  7  6  6  66       
PG08  -4831.261771  25916.067896  -2095.198159   -149.294193  6  6  5  76       
PG09  10383.875101  15103.834314  19179.757025    381.350471  3  5  7  91       
PG10 -21507.455266  -7783.495386 -13606.712771      0.174757  4  5  7 123       
PG11   -913.250513  19758.636300 -18371.241056   -572.925614  7  7  4  95       
PG12  -7025.889552 -21780.412776 -13835.665707    228.531384  7  5  4  84       
PG13  12954.036784 -22464.343901   5507.751632    -56.804931  4  6  2  92       
PG14 -16516.267282  11251.499505 -17076.397909    -73.773315  6  6  4  93       
PG15   1827.007341 -26135.353576  -3061.248741   -303.955847  6  5  5  92       
PG16  -9361.728098  11449.471267  21841.203267    -52.117077  7  6  8 116       
PG17  15478.054516  -2601.474273 -21006.372601     80.233075  8  6  8  87       
PG18  -7447.880381  16987.808288 -19463.527144     66.011873  6  7  7  82       
PG19  16756.572749  -9553.126447 -18591.368544   -300.321065 10  7  9  94       
PG20 -22744.830871 -13135.896778  -4587.558176    525.713807  7  6  9 117       
PG21 -20959.059275  -5080.510809  16189.895003   -163.779843  7  7  3 108       
PG22   4127.190915  19993.561007 -16805.741108   -724.255002  7  5  5  63       
PG23   2379.359456  24067.436085  10842.490660   -179.483076  7  3  5 101       
PG24    688.050815 -16423.912319 -20965.882116    -68.109604  7  4  5  57       
PG25 -17502.296762 -19990.809001  -2816.775811   -769.707051  7  8  6 104       
PG26 -17143.324341   3530.456453  20005.419982    239.306050  7  8  7 117       
PG27 -12084.839557  21423.946221   9506.869211   -171.325377  8  7  4  86       
PG28  20214.604492  10093.130069 -13278.154098    767.045475  9  4  8  98       
PG29  -6192.931847 -18752.055117  17719.579568    163.912604  6  4  6  79       
PG30  24459.874329   2095.092494  10412.243416   -133.513115  7  2  3  83       
PG31 -25980.239790   6592.778351    236.853404     27.695642  7  8  6 109       
PG32 -16036.819623   3786.986070 -20742.205579    -22.807275  4  6  7 115       
*  2019  6 29 23 30  0.00000000
PG01   -196.746469  15555.883777 -21673.743976    -54.082814  7  6  6  93       
PG02  19772.366566 -15397.184304   9176.071518   -248.927611  5  5  5 105       
PG03   9019.624868  20707.334878 -14091.732589    183.587029  8  6  4  81       
PG04  12774.900860  10208.872506  20944.321274 999999.999999
PG05  10551.230106 -11240.050914  21510.037770      0.334066  5  5  7  80       
PG06  25545.368250  -5874.424042  -4355.835108    163.799050  8  5  6  90       
PG07  15363.163021   9644.719664  19824.817911    -54.466032  7  6  7  88       
PG08  -5087.005381  25942.527430    789.999436   -149.295292  6  6  5  57       
PG09   9807.256277  17149.862408  17708.675980    381.343380  4  6  7  87       
PG10 -22429.103218  -8887.724314 -11268.791333      0.163578  5  5  7 113       
PG11  -2458.928390  20932.090745 -16844.061822   -572.917483  7  7  5  76       
PG12  -5788.945030 -20663.624416 -15974.285015    228.528244  7  5  3  82       
PG13  12901.393167 -21633.875513   8233.407853    -56.803328  4  7  1  97       
PG14 -16048.623152   9186.410752 -18670.768922    -73.771645  7  6  4  79       
PG15   2223.016536 -26251.986652   -259.414111   -303.953762  6  6  6  89       
PG16 -11096.117809   9589.309534  21961.397991    -52.120032  8  6  9 113       
PG17  14841.529842   -161.781814 -21613.598316     80.238819  8  6  8  98       
PG18  -9424.254539  17571.968568 -17983.122539     66.014192  6  7  8 103       
PG19  16163.863878  -7490.500523 -20024.503568   -300.316560 10  7  9  93       
PG20 -22846.828720 -13605.445542  -1833.109176    525.714501  7  6  9 127       
PG21 -19309.396568  -5888.274393  17973.183645   -163.773280  7  8  4 101       
PG22   2392.161814  18867.040295 -18344.971849   -724.259801  7  5  5  79       
PG23   1877.185200  25053.690867   8297.387229   -179.481558  7  3  5 101       
PG24   2912.674865 -17140.608301 -20150.169428    -68.110365  7  4  6  58       
PG25 -17029.650755 -19831.670037  -5622.760746   -769.709772  7  7  6 119       
PG26 -18740.301326   1983.882418  18764.386470    239.314540  7  8  8 115       
PG27 -12010.655656  20155.001837  12038.795912   -171.334759  9  8  5  89       
PG28  21064.928036  11304.393226 -10861.227928    767.045675 10  4  8 114       
PG29  -5535.678339 -20561.628277  15832.168725    163.904090  6  4  7  71       
PG30  23248.921751   2676.707317  12772.184724   -133.519802  7  2  3  93       
PG31 -25913.356944   6342.065246  -2587.306281     27.693509  7  7  6 115       
PG32 -15589.209723   1400.848969 -21380.952902    -22.793152  4  7  7 104       
*  2019  6 29 23 45  0.00000000
PG01  -2461.611682  16346.024313 -20905.214239    -54.091886  7  6  6 100       
PG02  20631.177779 -15514.843037   6513.861744   -248.935500  6  5  5  95       
PG03   7572.529545  19762.556416 -16147.937921    183.585496  8  6  5  81       
PG04  12258.888759  12492.603126  19993.176305 999999.999999
PG05  12504.796620  -9723.301190  21220.252907      0.333920  5  5  7  60       
PG06  25003.238192  -5445.696445  -7139.116586    163.789230  8  5  6  92       
PG07  13265.911066  10499.601096  20848.729839    -54.472818  6  6  8  66       
PG08  -5292.809552  25658.180111   3661.431836   -149.296253  6  7  5  88       
PG09   9362.021301  19040.377518  15931.855270    381.336218  4  6  7  97       
PG10 -23194.076372  -9767.359894  -8738.386781      0.152411  5  5  7 104       
PG11  -3824.620157  22042.821091 -15040.311914   -572.909266  7  7  5 102       
PG12  -4327.080206 -19464.661410 -17843.866062    228.524883  7  6  3  84       
PG13  12808.763379 -20511.604006  10816.385816    -56.801743  5  7  1  84       
PG14 -15647.890687   6940.367379 -19933.429247    -73.770324  7  6  4  98       
PG15   2593.721744 -26068.515293   2546.966457   -303.951415  5  6  6  78       
PG16 -12921.272826   7836.256526  21697.165053    -52.122880  9  6 10 118       
PG17  14328.892204   2355.636866 -21834.275723     80.244969  8  6  8  95       
PG18 -11205.248342  18185.632504 -16203.199235     66.016732  6  8  8  36       
PG19  15651.714205  -5261.882230 -21122.299090   -300.312174 11  7  9  99       
PG20 -22708.023798 -13903.942336    952.552041    525.714103  7  6  9 110       
PG21 -17543.325731  -6849.623029  19462.981420   -163.767162  7  8  5 102       
PG22    476.917136  17731.496009 -19563.619312   -724.264435  7  5  5  81       
PG23   1462.375220  25771.269594   5607.869002   -179.480156  7  3  6  92       
PG24   5001.531516 -17921.020953 -18989.835742    -68.112101  6  4  7  79       
PG25 -16310.417674 -19501.193992  -8333.896940   -769.712485  6  7  6 111       
PG26 -20287.648785    618.440287  17201.677250    239.323023  7  8  8 117       
PG27 -11961.656894  18609.848328  14359.049130   -171.344126  9  9  5  93       
PG28  21772.687984  12260.349549  -8250.821589    767.045237 10  4  9 109       
PG29  -5031.922906 -22180.660546  13671.511489    163.895199  6  4  7  75       
PG30  21827.485717   3397.239053  14914.785887   -133.526495  6     4  84       
PG31 -25563.369321   5984.891300  -5368.125768     27.691151  7  8  5 111       
PG32 -15256.423675  -1054.864164 -21649.205192    -22.779016  4  7  7 112       
EOF
